start=new Date('2022-10-25T00:00:00.000Z').valueOf();
sats=[{"TLE_LINE2":"2 53232  97.6584 357.1616 0001910  63.5130 296.6290 15.01235255 14484","SITE":"AFWTR","ELEMENT_SET_NO":"999","RA_OF_ASC_NODE":"357.1616","PERIOD":"95.921","FILE":"3631857","EPOCH":"2022-10-24T17:13:14.731104","OBJECT_TYPE":"PAYLOAD","MEAN_MOTION_DDOT":"0.0000000000000","ARG_OF_PERICENTER":"63.5130","MEAN_MOTION_DOT":"-0.00001917","RCS_SIZE":"LARGE","OBJECT_NAME":"STARLINK-4371","NORAD_CAT_ID":"53232","COUNTRY_CODE":"US","PERIAPSIS":"561.762","BSTAR":"-0.00014482000000","CENTER_NAME":"EARTH","SEMIMAJOR_AXIS":"6941.223","REF_FRAME":"TEME","MEAN_ANOMALY":"296.6290","TIME_SYSTEM":"UTC","MEAN_ELEMENT_THEORY":"SGP4","CLASSIFICATION_TYPE":"U","GP_ID":"216073821","DECAY_DATE":null,"LAUNCH_DATE":"2022-07-22","TLE_LINE1":"1 53232U 22084AV  22297.71753161 -.00001917  00000-0 -14482-3 0  9996","ECCENTRICITY":"0.00019100","INCLINATION":"97.6584","APOAPSIS":"564.414","OBJECT_ID":"2022-084AV","REV_AT_EPOCH":"1448","MEAN_MOTION":"15.01235255","EPHEMERIS_TYPE":"0"},{"MEAN_MOTION":"15.01239022","EPHEMERIS_TYPE":"0","APOAPSIS":"564.096","OBJECT_ID":"2022-084AW","REV_AT_EPOCH":"1448","TLE_LINE1":"1 53233U 22084AW  22297.71381150 -.00005985  00000-0 -46205-3 0  9999","ECCENTRICITY":"0.00014690","INCLINATION":"97.6567","DECAY_DATE":null,"LAUNCH_DATE":"2022-07-22","GP_ID":"216074567","REF_FRAME":"TEME","SEMIMAJOR_AXIS":"6941.212","MEAN_ANOMALY":"293.0333","TIME_SYSTEM":"UTC","MEAN_ELEMENT_THEORY":"SGP4","CLASSIFICATION_TYPE":"U","BSTAR":"-0.00046205000000","CENTER_NAME":"EARTH","PERIAPSIS":"562.057","COUNTRY_CODE":"US","MEAN_MOTION_DOT":"-0.00005985","RCS_SIZE":"LARGE","NORAD_CAT_ID":"53233","OBJECT_NAME":"STARLINK-4372","MEAN_MOTION_DDOT":"0.0000000000000","ARG_OF_PERICENTER":"67.1047","OBJECT_TYPE":"PAYLOAD","PERIOD":"95.921","FILE":"3631857","EPOCH":"2022-10-24T17:07:53.313600","ELEMENT_SET_NO":"999","RA_OF_ASC_NODE":"357.1485","TLE_LINE2":"2 53233  97.6567 357.1485 0001469  67.1047 293.0333 15.01239022 14481","SITE":"AFWTR"},{"CENTER_NAME":"EARTH","BSTAR":"-0.00003084200000","PERIAPSIS":"561.900","GP_ID":"216074076","TIME_SYSTEM":"UTC","MEAN_ANOMALY":"292.2579","REF_FRAME":"TEME","SEMIMAJOR_AXIS":"6941.162","CLASSIFICATION_TYPE":"U","MEAN_ELEMENT_THEORY":"SGP4","ECCENTRICITY":"0.00016230","TLE_LINE1":"1 53234U 22084AX  22297.71221873 -.00000455  00000-0 -30842-4 0  9993","INCLINATION":"97.6581","LAUNCH_DATE":"2022-07-22","DECAY_DATE":null,"EPHEMERIS_TYPE":"0","MEAN_MOTION":"15.01255090","OBJECT_ID":"2022-084AX","REV_AT_EPOCH":"1549","APOAPSIS":"564.154","TLE_LINE2":"2 53234  97.6581 357.1584 0001623  67.8817 292.2579 15.01255090 15490","SITE":"AFWTR","FILE":"3631857","PERIOD":"95.920","EPOCH":"2022-10-24T17:05:35.698272","RA_OF_ASC_NODE":"357.1584","ELEMENT_SET_NO":"999","MEAN_MOTION_DDOT":"0.0000000000000","ARG_OF_PERICENTER":"67.8817","OBJECT_TYPE":"PAYLOAD","COUNTRY_CODE":"US","MEAN_MOTION_DOT":"-0.00000455","OBJECT_NAME":"STARLINK-4368","NORAD_CAT_ID":"53234","RCS_SIZE":"LARGE"},{"ELEMENT_SET_NO":"999","RA_OF_ASC_NODE":"328.7732","EPOCH":"2022-10-24T22:00:00.999936","PERIOD":"95.441","FILE":"3631857","SITE":"AFETR","TLE_LINE2":"2 53242  53.2178 328.7732 0001717  44.2549  23.5387 15.08784528  1300","RCS_SIZE":"LARGE","NORAD_CAT_ID":"53242","OBJECT_NAME":"STARLINK-4056","MEAN_MOTION_DOT":"0.00043817","COUNTRY_CODE":"US","OBJECT_TYPE":"PAYLOAD","ARG_OF_PERICENTER":"44.2549","MEAN_MOTION_DDOT":"0.0000000000000","MEAN_ELEMENT_THEORY":"SGP4","CLASSIFICATION_TYPE":"U","SEMIMAJOR_AXIS":"6918.050","REF_FRAME":"TEME","TIME_SYSTEM":"UTC","MEAN_ANOMALY":"23.5387","GP_ID":"216074239","PERIAPSIS":"538.727","BSTAR":"0.00275830000000","CENTER_NAME":"EARTH","APOAPSIS":"541.103","REV_AT_EPOCH":"130","OBJECT_ID":"2022-086A","MEAN_MOTION":"15.08784528","EPHEMERIS_TYPE":"0","DECAY_DATE":null,"LAUNCH_DATE":"2022-07-24","INCLINATION":"53.2178","TLE_LINE1":"1 53242U 22086A   22297.91667824  .00043817  00000-0  27583-2 0  9999","ECCENTRICITY":"0.00017170"},{"PERIAPSIS":"538.491","CENTER_NAME":"EARTH","BSTAR":"0.00248300000000","MEAN_ANOMALY":"29.4482","TIME_SYSTEM":"UTC","SEMIMAJOR_AXIS":"6918.039","REF_FRAME":"TEME","CLASSIFICATION_TYPE":"U","MEAN_ELEMENT_THEORY":"SGP4","GP_ID":"216074802","LAUNCH_DATE":"2022-07-24","DECAY_DATE":null,"ECCENTRICITY":"0.00020420","TLE_LINE1":"1 53243U 22086B   22297.91667824  .00039394  00000-0  24830-2 0  9997","INCLINATION":"53.2143","REV_AT_EPOCH":"130","OBJECT_ID":"2022-086B","APOAPSIS":"541.317","EPHEMERIS_TYPE":"0","MEAN_MOTION":"15.08788112","TLE_LINE2":"2 53243  53.2143 333.7562 0002042  36.0430  29.4482 15.08788112  1304","SITE":"AFETR","RA_OF_ASC_NODE":"333.7562","ELEMENT_SET_NO":"999","FILE":"3631857","PERIOD":"95.441","EPOCH":"2022-10-24T22:00:00.999936","OBJECT_TYPE":"PAYLOAD","MEAN_MOTION_DDOT":"0.0000000000000","ARG_OF_PERICENTER":"36.0430","MEAN_MOTION_DOT":"0.00039394","OBJECT_NAME":"STARLINK-4047","NORAD_CAT_ID":"53243","RCS_SIZE":"LARGE","COUNTRY_CODE":"US"},{"PERIAPSIS":"538.229","CENTER_NAME":"EARTH","BSTAR":"0.00219630000000","CLASSIFICATION_TYPE":"U","MEAN_ELEMENT_THEORY":"SGP4","MEAN_ANOMALY":"92.0969","TIME_SYSTEM":"UTC","REF_FRAME":"TEME","SEMIMAJOR_AXIS":"6917.966","GP_ID":"216073659","DECAY_DATE":null,"LAUNCH_DATE":"2022-07-24","INCLINATION":"53.2156","ECCENTRICITY":"0.00023160","TLE_LINE1":"1 53244U 22086C   22297.91667824  .00034813  00000-0  21963-2 0  9993","REV_AT_EPOCH":"130","OBJECT_ID":"2022-086C","APOAPSIS":"541.433","EPHEMERIS_TYPE":"0","MEAN_MOTION":"15.08812011","SITE":"AFETR","TLE_LINE2":"2 53244  53.2156 333.7647 0002316  33.3927  92.0969 15.08812011  1300","RA_OF_ASC_NODE":"333.7647","ELEMENT_SET_NO":"999","EPOCH":"2022-10-24T22:00:00.999936","FILE":"3631857","PERIOD":"95.439","OBJECT_TYPE":"PAYLOAD","ARG_OF_PERICENTER":"33.3927","MEAN_MOTION_DDOT":"0.0000000000000","OBJECT_NAME":"STARLINK-4125","NORAD_CAT_ID":"53244","RCS_SIZE":"LARGE","MEAN_MOTION_DOT":"0.00034813","COUNTRY_CODE":"US"},{"ARG_OF_PERICENTER":"37.2965","MEAN_MOTION_DDOT":"0.0000000000000","OBJECT_TYPE":"PAYLOAD","COUNTRY_CODE":"US","NORAD_CAT_ID":"53245","OBJECT_NAME":"STARLINK-4124","RCS_SIZE":"LARGE","MEAN_MOTION_DOT":"0.00038315","SITE":"AFETR","TLE_LINE2":"2 53245  53.2149 333.7603 0002050  37.2965  48.1950 15.08789930  1300","EPOCH":"2022-10-24T22:00:00.999936","FILE":"3631857","PERIOD":"95.441","RA_OF_ASC_NODE":"333.7603","ELEMENT_SET_NO":"999","INCLINATION":"53.2149","ECCENTRICITY":"0.00020500","TLE_LINE1":"1 53245U 22086D   22297.91667824  .00038315  00000-0  24157-2 0  9993","LAUNCH_DATE":"2022-07-24","DECAY_DATE":null,"EPHEMERIS_TYPE":"0","MEAN_MOTION":"15.08789930","OBJECT_ID":"2022-086D","REV_AT_EPOCH":"130","APOAPSIS":"541.317","CENTER_NAME":"EARTH","BSTAR":"0.00241570000000","PERIAPSIS":"538.480","GP_ID":"216074403","CLASSIFICATION_TYPE":"U","MEAN_ELEMENT_THEORY":"SGP4","TIME_SYSTEM":"UTC","MEAN_ANOMALY":"48.1950","REF_FRAME":"TEME","SEMIMAJOR_AXIS":"6918.033"},{"PERIAPSIS":"538.197","CENTER_NAME":"EARTH","BSTAR":"0.00237980000000","CLASSIFICATION_TYPE":"U","MEAN_ELEMENT_THEORY":"SGP4","TIME_SYSTEM":"UTC","MEAN_ANOMALY":"77.1275","SEMIMAJOR_AXIS":"6918.060","REF_FRAME":"TEME","GP_ID":"216073822","LAUNCH_DATE":"2022-07-24","DECAY_DATE":null,"INCLINATION":"53.2159","ECCENTRICITY":"0.00024980","TLE_LINE1":"1 53246U 22086E   22297.91667824  .00037730  00000-0  23798-2 0  9994","OBJECT_ID":"2022-086E","REV_AT_EPOCH":"130","APOAPSIS":"541.653","EPHEMERIS_TYPE":"0","MEAN_MOTION":"15.08781225","SITE":"AFETR","TLE_LINE2":"2 53246  53.2159 333.7622 0002498  28.3863  77.1275 15.08781225  1308","RA_OF_ASC_NODE":"333.7622","ELEMENT_SET_NO":"999","EPOCH":"2022-10-24T22:00:00.999936","FILE":"3631857","PERIOD":"95.441","OBJECT_TYPE":"PAYLOAD","ARG_OF_PERICENTER":"28.3863","MEAN_MOTION_DDOT":"0.0000000000000","NORAD_CAT_ID":"53246","OBJECT_NAME":"STARLINK-4131","RCS_SIZE":"LARGE","MEAN_MOTION_DOT":"0.00037730","COUNTRY_CODE":"US"},{"RCS_SIZE":"LARGE","NORAD_CAT_ID":"53247","OBJECT_NAME":"STARLINK-4061","MEAN_MOTION_DOT":"0.00041085","COUNTRY_CODE":"US","OBJECT_TYPE":"PAYLOAD","ARG_OF_PERICENTER":"39.1061","MEAN_MOTION_DDOT":"0.0000000000000","ELEMENT_SET_NO":"999","RA_OF_ASC_NODE":"328.7746","EPOCH":"2022-10-24T22:00:00.999936","PERIOD":"95.439","FILE":"3631857","SITE":"AFETR","TLE_LINE2":"2 53247  53.2176 328.7746 0001872  39.1061  48.7678 15.08810377  1306","APOAPSIS":"541.131","REV_AT_EPOCH":"130","OBJECT_ID":"2022-086F","MEAN_MOTION":"15.08810377","EPHEMERIS_TYPE":"0","LAUNCH_DATE":"2022-07-24","DECAY_DATE":null,"INCLINATION":"53.2176","TLE_LINE1":"1 53247U 22086F   22297.91667824  .00041085  00000-0  25866-2 0  9991","ECCENTRICITY":"0.00018720","MEAN_ELEMENT_THEORY":"SGP4","CLASSIFICATION_TYPE":"U","SEMIMAJOR_AXIS":"6917.971","REF_FRAME":"TEME","TIME_SYSTEM":"UTC","MEAN_ANOMALY":"48.7678","GP_ID":"216074568","PERIAPSIS":"538.541","BSTAR":"0.00258660000000","CENTER_NAME":"EARTH"},{"TIME_SYSTEM":"UTC","MEAN_ANOMALY":"64.1337","REF_FRAME":"TEME","SEMIMAJOR_AXIS":"6918.071","CLASSIFICATION_TYPE":"U","MEAN_ELEMENT_THEORY":"SGP4","GP_ID":"216074077","PERIAPSIS":"538.698","CENTER_NAME":"EARTH","BSTAR":"0.00450340000000","REV_AT_EPOCH":"130","OBJECT_ID":"2022-086G","APOAPSIS":"541.173","EPHEMERIS_TYPE":"0","MEAN_MOTION":"15.08777741","DECAY_DATE":null,"LAUNCH_DATE":"2022-07-24","ECCENTRICITY":"0.00017890","TLE_LINE1":"1 53248U 22086G   22297.91667824  .00071994  00000-0  45034-2 0  9993","INCLINATION":"53.2164","RA_OF_ASC_NODE":"328.7728","ELEMENT_SET_NO":"999","FILE":"3631857","PERIOD":"95.441","EPOCH":"2022-10-24T22:00:00.999936","TLE_LINE2":"2 53248  53.2164 328.7728 0001789  43.6624  64.1337 15.08777741  1307","SITE":"AFETR","MEAN_MOTION_DOT":"0.00071994","NORAD_CAT_ID":"53248","OBJECT_NAME":"STARLINK-4135","RCS_SIZE":"LARGE","COUNTRY_CODE":"US","OBJECT_TYPE":"PAYLOAD","MEAN_MOTION_DDOT":"0.0000000000000","ARG_OF_PERICENTER":"43.6624"}];
